SPAINSAT NG I           
1 62852U 25021A   26199.08517093  .00000143  00000+0  00000+0 0  9999
2 62852   0.0198  42.6747 0000235 120.2218 192.6389  1.00272377  4291
QZS-6 (MICHIBIKI-6)     
1 62876U 25023A   26199.84930141 -.00000240  00000+0  00000+0 0  9993
2 62876   0.0111  34.9418 0001886  79.6341 218.2776  1.00274631  5266
ZHONGXING-10R           
1 63075U 25036A   26199.86050351 -.00000358  00000+0  00000+0 0  9997
2 63075   0.0254 169.3532 0004330 337.2805 210.3174  1.00270701  5271
TJS-15                  
1 63157U 25045A   26199.81210330 -.00000272  00000+0  00000+0 0  9993
2 63157   0.3094  85.6905 0003083 294.8019 302.8663  1.00272854  5079
TIANLIAN 2-04           
1 63361U 25062A   26199.91976455 -.00000140  00000+0  00000+0 0  9991
2 63361   4.2943 273.9819 0031434   9.2237  64.6501  1.00272574  4925
TJS-16                  
1 63397U 25064A   26199.72539708 -.00000112  00000+0  00000+0 0  9996
2 63397   1.1777  81.2665 0002454 294.7569 342.2525  1.00271244  4703
TJS-17                  
1 63524U 25073A   26199.82514919 -.00000077  00000+0  00000+0 0  9996
2 63524   1.1440  82.4266 0001008 314.2292   1.5118  1.00271316  4609
TIANLIAN 2-05           
1 63662U 25084A   26199.91781149  .00000120  00000+0  00000+0 0  9990
2 63662   4.3718 279.4733 0002693 157.1365 210.8791  1.00272973  4701
TJS-19                  
1 63924U 25097A   26199.82118086 -.00000281  00000+0  00000+0 0  9998
2 63924   3.2341 317.9697 0004110 251.3720 164.1101  1.00274857  4469
CHINASAT 3B             
1 64062U 25106A   26199.72678377 -.00000051  00000+0  00000+0 0  9991
2 64062   0.0339 189.3583 0004155 316.4207 219.6991  1.00272608  4377
SXM-10                  
1 64290U 25122A   26199.58864397 -.00000024  00000+0  00000+0 0  9995
2 64290   0.0175  44.1254 0001835 322.9805  25.0263  1.00272944  3990
COSMOS 2589             
1 64467U 25131A   26199.81911373 -.00000297  00000+0  00000+0 0  9996
2 64467   0.0238 120.2702 0001222  64.5231 144.7079  1.00268636  3876
CHINASAT 9C             
1 64470U 25132A   26199.82892080 -.00000254  00000+0  00000+0 0  9998
2 64470   0.0144  91.6831 0003436  24.0208 211.5207  1.00273450  4466
MTG-S1                  
1 64723U 25143A   26199.79072490 -.00000013  00000+0  00000+0 0  9995
2 64723   0.5824 345.9806 0003311 259.1431 335.7516  1.00274651  3730
DROR 1                  
1 64784U 25148A   26199.79072490 -.00000041  00000+0  00000+0 0  9998
2 64784   0.0400 238.7118 0002009 162.2390 176.3054  1.00272819  3615
SHIYAN-29               
1 65486U 25196A   26198.96433682 -.00000287  00000+0  00000+0 0  9995
2 65486  28.8546  18.1469 0013154 177.5801 182.5349  1.00275892  3184
NUSANTARA LIMA (NUSANT*)
1 65588U 25205A   26199.14419844  .00000000  00000+0  00000+0 0  9996
2 65588   0.0142  96.0397 0000415  69.3252 295.3574  1.00271133  3031
TJS-20                  
1 66142U 25238A   26199.82851545  .00000021  00000+0  00000+0 0  9995
2 66142   5.3991 299.4303 0003796 187.2836 170.6287  1.00267905  2641
CMS-03 (GSAT-7R)        
1 66311U 25249B   26199.84558537  .00000000  00000+0  00000+0 0  9999
2 66311   0.0147  57.1133 0002427  61.1071 196.8325  1.00269770  2662
VIASAT-3 F2             
1 66454U 25261A   26199.25030765 -.00000242  00000+0  00000+0 0  9993
2 66454   0.0351 206.6519 0000569   6.7692  93.7744  1.00272057  3107
SHIJIAN-28 (SJ-28)      
1 66549U 25277A   26199.71673038 -.00000365  00000+0  00000+0 0  9998
2 66549   4.4579 271.6305 0001232  54.4497 345.2658  1.00275211  2471
TJS-22                  
1 66990U 25290A   26193.80754925 -.00000005  00000+0  00000+0 0  9993
2 66990   1.4677 286.9097 0002691 318.9700  42.0235  1.00269739  2289
TJS-23                  
1 67226U 25306A   26199.51558626  .00000011  00000+0  00000+0 0  9994
2 67226   5.5184 297.3214 0004396 198.9022 161.2643  1.00268121  2207
FENGYUN 4C              
1 67246U 25312A   26194.65865777 -.00000328  00000+0  00000+0 0  9993
2 67246   0.0385 175.3203 0000658  48.7481  77.5697  1.00269440  2048
SHIJIAN-29A (SJ-29A)    
1 67302U 25315A   26199.79969279 -.00000076  00000+0  00000+0 0  9991
2 67302   3.4765  94.3495 0004975  50.9719 152.3378  1.00272987  1933
SHIJIAN-29B (SJ-29B)    
1 67403U 25315C   26199.79157369 -.00000076  00000+0  00000+0 0  9992
2 67403   3.4754  94.3427 0005163  54.1297 146.3071  1.00273256  2007
ELEKTRO-L 5             
1 67756U 26028A   26198.96700776 -.00000106  00000+0  00000+0 0  9993
2 67756   0.2040 326.3173 0002077 176.0737 217.6039  1.00271857  1551
JAM-E JAM 1             
1 67757U 26028B   26199.87058840  .00000149  00000+0  00000+0 0  9999
2 67757   0.1999 314.7343 0000713 262.2428  67.1122  1.00265995  1438
ECHOSTAR 25             
1 68126U 26045A   26199.58308632 -.00000064  00000+0  00000+0 0  9991
2 68126   0.0186  52.0699 0001758  56.8523 287.3607  1.00271629  1306
TJS-24                  
1 69235U 26116A   26199.84930139 -.00000238  00000+0  00000+0 0  9997
2 69235   0.0866  94.3365 0000335 151.8264  86.5180  1.00273817   541
